     3.02           N: GNSS NAV DATA    G: GPS              RINEX VERSION / TYPE
GR25 V3.11          IGN                 20160130 235943 UTC PGM / RUN BY / DATE
GPSA   1.2107D-08 -7.4506D-09 -5.9605D-08  5.9605D-08       IONOSPHERIC CORR
GPSB   1.1469D+05 -1.3107D+05 -2.6214D+05  7.2090D+05       IONOSPHERIC CORR
GPUT  4.6566128731D-09 7.993605777D-15 233472 1882          TIME SYSTEM CORR
    17    17  1851     3                                    LEAP SECONDS
                                                            END OF HEADER
G22 2016 01 31 20 00 00 4.039104096591D-04-5.456968210638D-12 0.000000000000D+00
     6.300000000000D+01-1.184375000000D+01 5.402010729716D-09-1.620562491367D+00
    -5.792826414108D-07 7.597182411700D-03 8.493661880493D-06 5.155094858170D+03
     7.200000000000D+04 1.676380634308D-07 8.598863064019D-01 1.005828380585D-07
     9.228027586218D-01 1.907500000000D+02-2.024315589807D+00-8.318917944895D-09
    -3.821587755898D-11 1.000000000000D+00 1.882000000000D+03 0.000000000000D+00
     2.000000000000D+00 0.000000000000D+00-1.769512891769D-08 6.300000000000D+01
     6.480000000000D+04                   
G15 2016 01 31 20 00 00-2.949824556708D-04-1.818989403546D-12 0.000000000000D+00
     7.700000000000D+01 4.406250000000D+01 5.291291832115D-09-2.989214303311D+00
     2.225860953331D-06 8.051091921516D-03 8.685514330864D-06 5.153791496277D+03
     7.200000000000D+04-1.005828380585D-07 1.879219126391D+00-1.303851604462D-07
     9.311541688001D-01 1.976875000000D+02 4.763138775963D-01-8.249986502195D-09
     3.250135381184D-11 1.000000000000D+00 1.882000000000D+03 0.000000000000D+00
     2.000000000000D+00 0.000000000000D+00-1.071020960808D-08 7.700000000000D+01
     6.480000000000D+04                   
G21 2016 01 31 20 00 00-5.081431008875D-04-1.932676241267D-12 0.000000000000D+00
     3.100000000000D+01-1.890625000000D+01 5.357723170675D-09 3.114380961211D-01
    -8.828938007355D-07 2.304771472700D-02 6.528571248055D-06 5.153673156738D+03
     7.200000000000D+04-3.892928361893D-07-1.829306497387D-01 6.519258022308D-08
     9.358908751772D-01 2.460625000000D+02-1.835869607247D+00-8.866797909152D-09
     2.000083311498D-11 1.000000000000D+00 1.882000000000D+03 0.000000000000D+00
     2.000000000000D+00 0.000000000000D+00-1.164153218269D-08 3.100000000000D+01
     6.480000000000D+04                   
G29 2016 01 31 19 59 44 6.532021798193D-04 9.094947017729D-13 0.000000000000D+00
     2.400000000000D+01-1.340625000000D+01 4.135886561991D-09 4.622534047440D-01
    -7.413327693939D-07 1.019611139782D-03 7.500872015953D-06 5.153624734879D+03
     7.198400000000D+04 1.862645149231D-08-1.151579615182D+00-3.725290298462D-08
     9.759469487935D-01 2.438125000000D+02-5.896901267550D-01-7.933187591963D-09
     1.882221259213D-10 1.000000000000D+00 1.882000000000D+03 0.000000000000D+00
     2.000000000000D+00 0.000000000000D+00-1.024454832077D-08 2.400000000000D+01
     6.480000000000D+04                   
G25 2016 01 31 20 00 00-1.090518198907D-04-6.593836587854D-12 0.000000000000D+00
     1.400000000000D+01-2.128125000000D+01 4.099813630837D-09 3.316860643759D-01
    -1.085922122002D-06 5.059385672212D-03 6.869435310364D-06 5.153566736221D+03
     7.200000000000D+04-1.303851604462D-08-2.252935336280D+00 7.823109626770D-08
     9.786212259479D-01 2.544375000000D+02 6.953297321886D-01-8.014262397626D-09
    -1.921508609975D-10 1.000000000000D+00 1.882000000000D+03 0.000000000000D+00
     2.000000000000D+00 0.000000000000D+00 5.587935447693D-09 1.400000000000D+01
     6.480000000000D+04                   
G26 2016 01 31 20 00 00-2.351924777031D-04-1.614353095647D-11 0.000000000000D+00
     4.400000000000D+01-2.509375000000D+01 4.431970323639D-09-1.832683643773D-01
    -1.436099410057D-06 7.798912702128D-04 7.407739758492D-06 5.153702808380D+03
     7.200000000000D+04 1.490116119385D-08-2.259860908963D+00 2.607703208923D-08
     9.606489481875D-01 2.375625000000D+02-1.614597126908D-01-8.106051935314D-09
    -2.242950570751D-10 1.000000000000D+00 1.882000000000D+03 0.000000000000D+00
     2.000000000000D+00 0.000000000000D+00 6.984919309616D-09 4.400000000000D+01
     6.720000000000D+04                   
G16 2016 01 31 19 59 44-4.361616447568D-05 3.183231456205D-12 0.000000000000D+00
     8.000000000000D+00-2.175000000000D+01 3.740512950236D-09-1.152793949832D+00
    -1.193955540657D-06 8.480031741783D-03 7.677823305130D-06 5.153698541641D+03
     7.198400000000D+04 1.378357410431D-07-2.184647913457D+00-1.154839992523D-07
     9.907878050547D-01 2.470312500000D+02 3.207638287581D-01-7.723178844256D-09
    -1.396486740707D-10 1.000000000000D+00 1.882000000000D+03 0.000000000000D+00
     2.000000000000D+00 0.000000000000D+00-1.024454832077D-08 8.000000000000D+00
     7.053000000000D+04                   
G14 2016 01 31 19 59 44 5.812384188175D-06-2.273736754432D-12 0.000000000000D+00
     1.100000000000D+01 5.687500000000D+01 4.511616498365D-09-2.188537405939D+00
     3.028661012650D-06 8.297196822241D-03 7.929280400276D-06 5.153718954086D+03
     7.198400000000D+04 1.043081283569D-07 2.011603368589D+00 1.676380634308D-08
     9.644206377278D-01 2.280625000000D+02-1.948991864569D+00-7.879256774100D-09
     9.357532635937D-11 1.000000000000D+00 1.882000000000D+03 0.000000000000D+00
     2.000000000000D+00 0.000000000000D+00-9.313225746155D-09 1.100000000000D+01
     7.095000000000D+04                   
G12 2016 01 31 22 00 00 3.649117425084D-04 2.614797267597D-12 0.000000000000D+00
     4.700000000000D+01-3.453125000000D+01 3.758013679211D-09 1.979093595501D+00
    -1.888722181320D-06 5.782337393612D-03 7.456168532372D-06 5.153796447754D+03
     7.920000000000D+04-1.173466444016D-07-2.203460801501D+00-3.352761268616D-08
     9.902750259354D-01 2.517500000000D+02 6.646639102855D-01-7.787467236411D-09
    -2.075086435679D-10 1.000000000000D+00 1.882000000000D+03 0.000000000000D+00
     2.000000000000D+00 0.000000000000D+00-1.210719347000D-08 4.700000000000D+01
     7.200000000000D+04                   
G26 2016 01 31 22 00 00-2.353084273636D-04-1.614353095647D-11 0.000000000000D+00
     4.500000000000D+01-2.259375000000D+01 4.489829876579D-09 8.662756450006D-01
    -1.169741153717D-06 7.817245787010D-04 6.424263119698D-06 5.153706382751D+03
     7.920000000000D+04-2.607703208923D-08-2.259919550035D+00-2.607703208923D-08
     9.606471239287D-01 2.509687500000D+02-1.608423071334D-01-8.163554330520D-09
    -2.100087477073D-10 1.000000000000D+00 1.882000000000D+03 0.000000000000D+00
     2.000000000000D+00 0.000000000000D+00 6.984919309616D-09 4.500000000000D+01
     7.200000000000D+04                   
G16 2016 01 31 22 00 00-4.359334707260D-05 3.183231456205D-12 0.000000000000D+00
     9.000000000000D+00-2.409375000000D+01 3.824802175506D-09-1.002297387652D-01
    -1.333653926849D-06 8.481349097565D-03 7.022172212601D-06 5.153701234818D+03
     7.920000000000D+04 6.332993507385D-08-2.184703924202D+00 8.009374141693D-08
     9.907857130819D-01 2.578750000000D+02 3.206930191343D-01-7.913186758848D-09
    -2.035799084918D-10 1.000000000000D+00 1.882000000000D+03 0.000000000000D+00
     2.000000000000D+00 0.000000000000D+00-1.024454832077D-08 9.000000000000D+00
     7.200000000000D+04                   
G10 2016 01 31 22 00 00 4.755612462759D-05-2.614797267597D-12 0.000000000000D+00
     5.200000000000D+01-1.934375000000D+01 4.606977613395D-09 9.608260271064D-01
    -1.000240445137D-06 1.080894144252D-03 8.789822459221D-06 5.153685808182D+03
     7.920000000000D+04-3.166496753693D-08 8.838570924928D-01 1.862645149231D-08
     9.594590267139D-01 2.095312500000D+02-2.924937651805D+00-8.028548706994D-09
    -7.250302004181D-11 1.000000000000D+00 1.882000000000D+03 0.000000000000D+00
     2.000000000000D+00 0.000000000000D+00 2.328306436539D-09 5.200000000000D+01
     7.200000000000D+04                   
G14 2016 01 31 21 59 44 5.795620381832D-06-2.273736754432D-12 0.000000000000D+00
     2.100000000000D+01 5.103125000000D+01 4.556975530608D-09-1.138328125787D+00
     2.844259142876D-06 8.296809159219D-03 8.143484592438D-06 5.153719902039D+03
     7.918400000000D+04 1.117587089539D-08 2.011546592738D+00 2.011656761169D-07
     9.644204109755D-01 2.260000000000D+02-1.949048832061D+00-8.053549748387D-09
     3.821587755898D-11 1.000000000000D+00 1.882000000000D+03 0.000000000000D+00
     2.000000000000D+00 0.000000000000D+00-9.313225746155D-09 2.100000000000D+01
     7.200000000000D+04                   
G31 2016 01 31 22 00 00 2.846284769475D-04-1.591615728103D-12 0.000000000000D+00
     5.600000000000D+01 2.881250000000D+01 4.456257049565D-09 2.327376107071D+00
     1.747161149979D-06 8.354131481610D-03 5.554407835007D-06 5.153687833786D+03
     7.920000000000D+04 8.940696716309D-08 3.015272713000D+00 2.067536115646D-07
     9.727632294359D-01 2.790312500000D+02-4.406468390981D-01-8.072479108300D-09
    -1.650068731986D-10 1.000000000000D+00 1.882000000000D+03 0.000000000000D+00
     2.000000000000D+00 0.000000000000D+00-1.350417733192D-08 5.600000000000D+01
     7.200000000000D+04                   
G18 2016 01 31 22 00 00 4.787989892066D-04 3.979039320257D-12 0.000000000000D+00
     3.200000000000D+01-1.868750000000D+01 5.514158258253D-09 4.828589555279D-01
    -9.778887033463D-07 1.657298894133D-02 8.586794137955D-06 5.153657129288D+03
     7.920000000000D+04-2.887099981308D-07 8.590442141825D-01 7.450580596924D-09
     9.249519505900D-01 1.981250000000D+02-1.915290711477D+00-8.739292598044D-09
    -1.792931825664D-10 1.000000000000D+00 1.882000000000D+03 0.000000000000D+00
     2.000000000000D+00 0.000000000000D+00-1.117587089539D-08 3.200000000000D+01
     7.200000000000D+04                   
